{
  "type": "FeatureCollection",
  "features": [
    {
      "type": "Feature",
      "properties": {
        "norad_id": 43719,
        "name": "HYSIS",
        "group": "resource",
        "lat": 76.55575620765367,
        "lon": 4.583908468149079,
        "alt_km": 625.4109320895095,
        "timestamp": "2025-12-03T15:48:02.759319+00:00",
        "meta_object_name": "HYSIS",
        "meta_object_id": "2018-096A",
        "meta_epoch": "2025-12-03T07:19:24.295584",
        "meta_mean_motion": 14.78598396,
        "meta_eccentricity": 0.00016323,
        "meta_inclination": 98.0112,
        "meta_ra_of_asc_node": 40.3287,
        "meta_arg_of_pericenter": 67.0371,
        "meta_mean_anomaly": 293.1012,
        "meta_ephemeris_type": 0,
        "meta_classification_type": "U",
        "meta_norad_cat_id": 43719,
        "meta_element_set_no": 999,
        "meta_rev_at_epoch": 37847,
        "meta_bstar": 2.6908319e-05,
        "meta_mean_motion_dot": 1.45e-06,
        "meta_mean_motion_ddot": 0,
        "tle_line1": "1 43719U 18096A   25337.30514231  .00000145  00000+0  26908-4 0  9995",
        "tle_line2": "2 43719  98.0112  40.3287 0001632  67.0371 293.1012 14.78598396378474"
      },
      "geometry": {
        "type": "Point",
        "coordinates": [
          4.583908468149079,
          76.55575620765367
        ]
      }
    },
    {
      "type": "Feature",
      "properties": {
        "norad_id": 43783,
        "name": "KAZSTSAT",
        "group": "resource",
        "lat": -0.2398520640275178,
        "lon": 13.265200405622728,
        "alt_km": 567.6040283517577,
        "timestamp": "2025-12-03T15:48:02.759328+00:00",
        "meta_object_name": "KAZSTSAT",
        "meta_object_id": "2018-099AB",
        "meta_epoch": "2025-12-03T01:23:09.943872",
        "meta_mean_motion": 14.99298184,
        "meta_eccentricity": 0.00065507,
        "meta_inclination": 97.4552,
        "meta_ra_of_asc_node": 12.659,
        "meta_arg_of_pericenter": 5.7461,
        "meta_mean_anomaly": 354.3837,
        "meta_ephemeris_type": 0,
        "meta_classification_type": "U",
        "meta_norad_cat_id": 43783,
        "meta_element_set_no": 999,
        "meta_rev_at_epoch": 38191,
        "meta_bstar": 0.00022261014,
        "meta_mean_motion_dot": 2.663e-05,
        "meta_mean_motion_ddot": 0,
        "tle_line1": "1 43783U 18099AB  25337.05775398  .00002663  00000+0  22261-3 0  9998",
        "tle_line2": "2 43783  97.4552  12.6590 0006550   5.7461 354.3837 14.99298184381911"
      },
      "geometry": {
        "type": "Point",
        "coordinates": [
          13.265200405622728,
          -0.2398520640275178
        ]
      }
    },
    {
      "type": "Feature",
      "properties": {
        "norad_id": 43831,
        "name": "SAUDISAT 5A",
        "group": "resource",
        "lat": -80.46766461218859,
        "lon": 88.1430551683669,
        "alt_km": 504.7516151960035,
        "timestamp": "2025-12-03T15:48:02.759337+00:00",
        "meta_object_name": "SAUDISAT 5A",
        "meta_object_id": "2018-102A",
        "meta_epoch": "2025-12-03T08:17:50.383392",
        "meta_mean_motion": 15.25468356,
        "meta_eccentricity": 0.00117875,
        "meta_inclination": 97.3374,
        "meta_ra_of_asc_node": 37.7193,
        "meta_arg_of_pericenter": 105.0514,
        "meta_mean_anomaly": 255.2029,
        "meta_ephemeris_type": 0,
        "meta_classification_type": "U",
        "meta_norad_cat_id": 43831,
        "meta_element_set_no": 999,
        "meta_rev_at_epoch": 38579,
        "meta_bstar": 0.00033617703,
        "meta_mean_motion_dot": 8.454e-05,
        "meta_mean_motion_ddot": 0,
        "tle_line1": "1 43831U 18102A   25337.34572203  .00008454  00000+0  33618-3 0  9991",
        "tle_line2": "2 43831  97.3374  37.7193 0011787 105.0514 255.2029 15.25468356385796"
      },
      "geometry": {
        "type": "Point",
        "coordinates": [
          88.1430551683669,
          -80.46766461218859
        ]
      }
    },
    {
      "type": "Feature",
      "properties": {
        "norad_id": 43833,
        "name": "SAUDISAT 5B",
        "group": "resource",
        "lat": -42.981619909267074,
        "lon": 47.65419001826115,
        "alt_km": 502.39547144128665,
        "timestamp": "2025-12-03T15:48:02.759347+00:00",
        "meta_object_name": "SAUDISAT 5B",
        "meta_object_id": "2018-102C",
        "meta_epoch": "2025-12-03T08:07:16.985856",
        "meta_mean_motion": 15.25825777,
        "meta_eccentricity": 0.00124542,
        "meta_inclination": 97.3469,
        "meta_ra_of_asc_node": 40.4338,
        "meta_arg_of_pericenter": 107.6163,
        "meta_mean_anomaly": 252.6436,
        "meta_ephemeris_type": 0,
        "meta_classification_type": "U",
        "meta_norad_cat_id": 43833,
        "meta_element_set_no": 999,
        "meta_rev_at_epoch": 38590,
        "meta_bstar": 0.00033410492,
        "meta_mean_motion_dot": 8.494e-05,
        "meta_mean_motion_ddot": 0,
        "tle_line1": "1 43833U 18102C   25337.33839104  .00008494  00000+0  33410-3 0  9992",
        "tle_line2": "2 43833  97.3469  40.4338 0012454 107.6163 252.6436 15.25825777385905"
      },
      "geometry": {
        "type": "Point",
        "coordinates": [
          47.65419001826115,
          -42.981619909267074
        ]
      }
    },
    {
      "type": "Feature",
      "properties": {
        "norad_id": 44622,
        "name": "GAOFEN-10R",
        "group": "resource",
        "lat": -47.838560626684895,
        "lon": 96.16547332535269,
        "alt_km": 633.0316888633042,
        "timestamp": "2025-12-03T15:48:02.759356+00:00",
        "meta_object_name": "GAOFEN-10R",
        "meta_object_id": "2019-066A",
        "meta_epoch": "2025-12-03T08:17:45.283200",
        "meta_mean_motion": 14.82737076,
        "meta_eccentricity": 0.00082621,
        "meta_inclination": 98.0262,
        "meta_ra_of_asc_node": 284.8163,
        "meta_arg_of_pericenter": 67.5198,
        "meta_mean_anomaly": 292.6889,
        "meta_ephemeris_type": 0,
        "meta_classification_type": "U",
        "meta_norad_cat_id": 44622,
        "meta_element_set_no": 999,
        "meta_rev_at_epoch": 33335,
        "meta_bstar": 0.00034774699,
        "meta_mean_motion_dot": 2.755e-05,
        "meta_mean_motion_ddot": 0,
        "tle_line1": "1 44622U 19066A   25337.34566300  .00002755  00000+0  34775-3 0  9994",
        "tle_line2": "2 44622  98.0262 284.8163 0008262  67.5198 292.6889 14.82737076333359"
      },
      "geometry": {
        "type": "Point",
        "coordinates": [
          96.16547332535269,
          -47.838560626684895
        ]
      }
    },
    {
      "type": "Feature",
      "properties": {
        "norad_id": 44804,
        "name": "CARTOSAT-3",
        "group": "resource",
        "lat": -77.53228453826765,
        "lon": 73.70281876399682,
        "alt_km": 524.6261384885793,
        "timestamp": "2025-12-03T15:48:02.759365+00:00",
        "meta_object_name": "CARTOSAT-3",
        "meta_object_id": "2019-081A",
        "meta_epoch": "2025-12-03T08:14:58.100064",
        "meta_mean_motion": 15.19233543,
        "meta_eccentricity": 0.00137551,
        "meta_inclination": 97.4604,
        "meta_ra_of_asc_node": 37.0456,
        "meta_arg_of_pericenter": 116.7335,
        "meta_mean_anomaly": 243.5309,
        "meta_ephemeris_type": 0,
        "meta_classification_type": "U",
        "meta_norad_cat_id": 44804,
        "meta_element_set_no": 999,
        "meta_rev_at_epoch": 33373,
        "meta_bstar": 0.00015272593,
        "meta_mean_motion_dot": 3.156e-05,
        "meta_mean_motion_ddot": 0,
        "tle_line1": "1 44804U 19081A   25337.34372801  .00003156  00000+0  15273-3 0  9992",
        "tle_line2": "2 44804  97.4604  37.0456 0013755 116.7335 243.5309 15.19233543333735"
      },
      "geometry": {
        "type": "Point",
        "coordinates": [
          73.70281876399682,
          -77.53228453826765
        ]
      }
    },
    {
      "type": "Feature",
      "properties": {
        "norad_id": 44819,
        "name": "GAOFEN-12 01",
        "group": "resource",
        "lat": -24.552644876244887,
        "lon": 160.58149706971093,
        "alt_km": 632.9346405915448,
        "timestamp": "2025-12-03T15:48:02.759374+00:00",
        "meta_object_name": "GAOFEN-12 01",
        "meta_object_id": "2019-082A",
        "meta_epoch": "2025-12-03T08:23:28.968576",
        "meta_mean_motion": 14.80639362,
        "meta_eccentricity": 0.00012709,
        "meta_inclination": 97.8128,
        "meta_ra_of_asc_node": 343.8771,
        "meta_arg_of_pericenter": 298.0838,
        "meta_mean_anomaly": 62.0246,
        "meta_ephemeris_type": 0,
        "meta_classification_type": "U",
        "meta_norad_cat_id": 44819,
        "meta_element_set_no": 999,
        "meta_rev_at_epoch": 32511,
        "meta_bstar": 0.00011135633,
        "meta_mean_motion_dot": 8.04e-06,
        "meta_mean_motion_ddot": 0,
        "tle_line1": "1 44819U 19082A   25337.34964084  .00000804  00000+0  11136-3 0  9990",
        "tle_line2": "2 44819  97.8128 343.8771 0001270 298.0838  62.0246 14.80639362325118"
      },
      "geometry": {
        "type": "Point",
        "coordinates": [
          160.58149706971093,
          -24.552644876244887
        ]
      }
    }
  ]
}